ONEWEB-0371             
1 49297U 21090U   25147.88891697  .00000018  00000+0  11804-4 0  9994
2 49297  87.9238  21.5597 0001825  85.9805 274.1537 13.19724858176922
ONEWEB-0372             
1 49298U 21090V   25147.86230094 -.00000003  00000+0 -39532-4 0  9995
2 49298  87.9268 351.1872 0001678  89.9004 270.2321 13.20771145180279
ONEWEB-0373             
1 49299U 21090W   25147.81351717  .00000095  00000+0  20148-3 0  9998
2 49299  87.9267 351.2085 0001723  81.0252 279.1076 13.20770587181450
ONEWEB-0374             
1 49300U 21090X   25147.88662437  .00000101  00000+0  23875-3 0  9990
2 49300  87.9048   6.3516 0001557  67.8992 292.2303 13.14503902178234
ONEWEB-0375             
1 49301U 21090Y   25147.80088941  .00000040  00000+0  65630-4 0  9993
2 49301  87.9265 351.1884 0002008  68.9095 291.2253 13.20771299180940
ONEWEB-0376             
1 49302U 21090Z   25147.88733993  .00000052  00000+0  98688-4 0  9998
2 49302  87.9231  21.5459 0001648  88.8389 271.2933 13.19724410176912
ONEWEB-0377             
1 49303U 21090AA  25147.10500556  .00000020  00000+0  16304-4 0  9991
2 49303  87.9265 351.3198 0002104  86.8111 273.3263 13.20770504180835
ONEWEB-0378             
1 49304U 21090AB  25147.80892014  .00000017  00000+0  10351-4 0  9994
2 49304  87.9267 351.1870 0001775  82.6170 277.5165 13.20772968180232
